CZ-4B R/B               
1 28059U 03049C   16142.14456227  .00000049  00000-0  23934-4 0  9993
2 28059  98.6159  13.0200 0050340   3.6378 158.7179 14.52442787666762
CZ-2C R/B               
1 28222U 04012C   16142.06110560  .00001903  00000-0  12262-3 0  9995
2 28222  97.4721 101.5738 0051050  90.4171  40.1722 15.08448442661487
SL-16 R/B               
1 28353U 04021B   16141.15535345  .00000329  00000-0  19755-3 0  9996
2 28353  70.9997 182.7023 0003175  70.4945 289.6520 14.14173977616595
CZ-2C R/B               
1 28480U 04046B   16142.31790396  .00000046  00000-0  33711-4 0  9997
2 28480  98.1791 258.0005 0140971 301.3611  73.2941 14.25590709598400
ARIANE 5 R/B            
1 28499U 04049H   16142.18949547  .00000187  00000-0  30549-4 0  9991
2 28499  98.1109 216.1891 0093505  41.4201 345.0708 14.79693040616029
CZ-2D R/B               
1 28738U 05024B   16141.85638751  .00001298  00000-0  82588-4 0  9990
2 28738  97.5443 179.3580 0010716 273.9796  86.0208 15.10519035596579
SUZAKU (ASTRO-EII)      
1 28773U 05025A   16141.52504580  .00001843  00000-0  92497-4 0  9992
2 28773  31.3835 320.7205 0004869   8.8065 351.2666 15.14737098597741
ALOS (DAICHI)           
1 28931U 06002A   16142.18546441  .00000330  00000-0  74330-4 0  9995
2 28931  97.8871 182.1958 0002647 100.7098 259.4403 14.62188334550178
H-2A R/B                
1 28932U 06002B   16141.73059582  .00000664  00000-0  68680-4 0  9992
2 28932  98.2176  42.8906 0091367 156.1713 264.3906 14.90872034559320
AKARI (ASTRO-F)         
1 28939U 06005A   16142.48152917  .00006997  00000-0  23084-3 0  9994
2 28939  98.2373 296.3738 0116134 101.7989 259.6300 15.25444948553334
RESURS-DK 1             
1 29228U 06021A   16142.52952900  .00000409  00000-0  38635-4 0  9990
2 29228  69.9389  14.3577 0007536 235.4441 124.6022 15.01903815549299
GENESIS 1               
1 29252U 06029A   16142.50872794  .00001380  00000-0  81158-4 0  9992
2 29252  64.5040 123.9807 0033749 230.5192 268.7731 15.15981340542449
CZ-4B R/B               
1 29507U 06046C   16142.53940139  .00000780  00000-0  67136-4 0  9999
2 29507  97.7818 143.8294 0041896 143.9212 216.4852 14.99702361522331
CZ-2C R/B               
1 31114U 07010B   16142.42384255  .00000024  00000-0  30648-4 0  9996
2 31114  98.4150  58.7805 0058562 272.7511  86.6964 14.19204262471948
COSMO-SKYMED 1          
1 31598U 07023A   16142.34368662  .00000352  00000-0  50735-4 0  9994
2 31598  97.8740 326.1755 0001613  87.7626 272.3777 14.82166918484400
GENESIS 2               
1 31789U 07028A   16141.21544701  .00001280  00000-0  76310-4 0  9994
2 31789  64.5032 164.7768 0053385 269.9677  89.5327 15.15231705489341
COSMOS 2428             
1 31792U 07029A   16142.41357821  .00000137  00000-0  10000-3 0  9990
2 31792  70.9410 154.3935 0006752 153.0571 352.4071 14.12384489458752
SL-16 R/B               
1 31793U 07029B   16142.42565243 -.00000246  00000-0 -10351-3 0  9993
2 31793  70.9742 132.0471 0002523 280.2132 190.6920 14.14362723459325
KORONAS-FOTON           
1 33504U 09003A   16141.40073808  .00001228  00000-0  65062-4 0  9996
2 33504  82.4437 263.1274 0020392  30.9460 329.2968 15.14301268402026
TIANGONG 1              
1 37820U 11053A   16142.46144676  .00015473  00000-0  17259-3 0  9999
2 37820  42.7637  47.1059 0013955 224.0255 128.8111 15.62453339266399
CZ-3B R/B               
1 38253U 12018D   16142.31667148  .00362081  54541-6  10735-2 0  9996
2 38253  54.9621 261.4972 3608334 181.0236 178.1017  8.38211811 88711
H-2A R/B                
1 38341U 12025E   16142.14677585  .00000435  00000-0  59408-4 0  9998
2 38341  98.4822 190.1825 0055646 339.5508  20.3475 14.83311118216752
CZ-2C R/B               
1 39000U 12064D   16142.49644595  .00189600  16681-4  39329-3 0  9994
2 39000  97.2723 185.6082 0002687 166.2191 193.9161 15.99169224197851
CUSAT 2 & FALCON 9 R/B  
1 39271U 13055G   16141.82497367  .00005514  00000-0  14983-3 0  9998
2 39271  80.9738  50.2635 0657211 277.8048  74.9055 14.31062893136386
ASTRO-H (HITOMI)        
1 41337U 16012A   16141.90101884  .00000674  00000-0  48622-4 0  9995
2 41337  31.0052  84.1570 0012432 127.3940 232.7835 14.98053376 14049
